SL-16 R/B               
1 23343U 94074B   17345.74489519 -.00000014  00000-0  55221-5 0  9992
2 23343  98.1320  24.3856 0006103 214.6485 261.3088 14.76718956243032
